0 COSMOS 2251 DEB
1 37342U 93036BLJ 13281.62732871  .00003813  00000-0  96009-3 0  2413
2 37342 073.7411 036.1741 0055237 310.8607 048.9169 14.50624681210505
0 COSMOS 2251 DEB
1 37342U 93036BLJ 13283.97203087  .00003885  00000-0  98131-3 0  2423
2 37342 073.7432 031.6899 0049534 305.5081 054.2004 14.50645110210847
0 COSMOS 2251 DEB
1 37342U 93036BLJ 13287.90282446  .00003947  00000-0  99877-3 0  2434
2 37342 073.7462 024.1798 0045277 292.1847 067.5241 14.50677750211415
0 COSMOS 2251 DEB
1 37342U 93036BLJ 13288.93721823  .00004292  00000-0  10874-2 0  2449
2 37342 073.7468 022.2057 0041280 286.9324 073.0598 14.50697979211567
0 COSMOS 2251 DEB
1 37342U 93036BLJ 13290.59218189  .00004629  00000-0  11647-2 0  2454
2 37342 073.7502 019.0389 0050818 285.8649 074.0265 14.50724534211800
0 COSMOS 2251 DEB
1 37342U 93036BLJ 13291.55753389  .00004799  00000-0  12048-2 0  2462
2 37342 073.7476 017.1909 0053587 285.5827 074.0598 14.50738890211942
